BUFENG 1A               
1 44310U 19032A   26068.91906837  .00016103  00000+0  62414-3 0  9992
2 44310  44.9758 238.6688 0005472  55.4463 304.6935 15.26012088372013
STARLINK-32302          
1 61621U 24191A   26068.25956639  .00000896  00000+0  42096-4 0  9997
2 61621  42.9981 156.6717 0001467 319.6331  40.4412 15.27558857 78225
